format  = 'OEF2.0'       ! file format
rectype = 'ML'           ! record type (1L/ML)
refsys  = ECLM J2000     ! default reference system
END_OF_HEADER
2015RN35
! Equinoctial elements: a, e*sin(LP), e*cos(LP), tan(i/2)*sin(LN), tan(i/2)*cos(LN), mean long.
 EQU   1.4597513976025835E+00   0.285859684022060   0.187526292392717   -0.001113623441851   -0.001969823345975  34.9412629996062
 MJD     57291.958166082 TDT
 MAG  22.961  0.150
! Non-grav parameters: model used, actual number in use, dimension
 LSP   0  0    6
! RMS    7.65469E-05   2.84554E-05   1.92945E-05   1.08867E-07   1.43141E-07   2.21459E-03
! EIG   2.03827E-08   2.27783E-08   5.42706E-08   8.15191E-08   9.40311E-07   9.23824E-05
! WEA   0.82858   0.30801   0.20880  -0.00115  -0.00128   0.41832
 COV   5.859427644733774E-09  2.177998125657335E-09  1.476663567958579E-09
 COV  -8.112514271300745E-12 -9.034500483913900E-12  1.694752274957370E-07
 COV   8.097097833089598E-10  5.487578424130601E-10 -3.016346022571786E-12
 COV  -3.359244820664817E-12  6.301346191210361E-08  3.722793944074490E-10
 COV  -2.043519462656296E-12 -2.275655096612279E-12  4.269159641220350E-08
 COV   1.185198527826207E-14  1.327083972279634E-14 -2.347694993929498E-10
 COV   2.048921812095989E-14 -2.614643418848688E-10  4.904388283665196E-06
 NOR   1.408653154899018E+14  1.718900781141263E+14 -3.662523484899018E+14
 NOR   6.575464154080354E+12  6.636514745174310E+11 -3.887733696851022E+12
 NOR   9.667626749206961E+14 -7.225645624858680E+14 -2.689881451741300E+13
 NOR   1.594911808304506E+12 -1.207258336564799E+13  1.054150773425853E+15
 NOR  -4.546836890266654E+12 -2.069406248979303E+12  1.276346877257448E+13
 NOR   1.900281777450001E+15 -2.187398874963822E+14  2.372684052947635E+11
 NOR   1.778840816634042E+14 -2.639885848460788E+10  1.783640930487148E+11
